{
  "type": "FeatureCollection",
  "features": [
    {
      "type": "Feature",
      "properties": {
        "norad_id": 44873,
        "name": "CSG-1",
        "group": "resource",
        "lat": 80.79537279700459,
        "lon": 106.86422065789435,
        "alt_km": 614.0764719450981,
        "timestamp": "2025-12-10T05:46:13.455101+00:00",
        "meta_object_name": "CSG-1",
        "meta_object_id": "2019-092A",
        "meta_epoch": "2025-12-09T19:39:57.110400",
        "meta_mean_motion": 14.82158523,
        "meta_eccentricity": 0.0001455,
        "meta_inclination": 97.8811,
        "meta_ra_of_asc_node": 165.1876,
        "meta_arg_of_pericenter": 85.4932,
        "meta_mean_anomaly": 274.6448,
        "meta_ephemeris_type": 0,
        "meta_classification_type": "U",
        "meta_norad_cat_id": 44873,
        "meta_element_set_no": 999,
        "meta_rev_at_epoch": 32342,
        "meta_bstar": 0.00015196,
        "meta_mean_motion_dot": 1.158e-05,
        "meta_mean_motion_ddot": 0,
        "tle_line1": "1 44873U 19092A   25343.81941100  .00001158  00000+0  15196-3 0  9997",
        "tle_line2": "2 44873  97.8811 165.1876 0001455  85.4932 274.6448 14.82158523323420"
      },
      "geometry": {
        "type": "Point",
        "coordinates": [
          106.86422065789435,
          80.79537279700459
        ]
      }
    },
    {
      "type": "Feature",
      "properties": {
        "norad_id": 46277,
        "name": "NEMO-HD",
        "group": "resource",
        "lat": 79.19230575408993,
        "lon": 1.7503649450653214,
        "alt_km": 436.7646280895042,
        "timestamp": "2025-12-10T05:46:13.455112+00:00",
        "meta_object_name": "NEMO-HD",
        "meta_object_id": "2020-061F",
        "meta_epoch": "2025-12-09T20:03:38.830176",
        "meta_mean_motion": 15.40231359,
        "meta_eccentricity": 0.0002059,
        "meta_inclination": 97.221,
        "meta_ra_of_asc_node": 42.9705,
        "meta_arg_of_pericenter": 59.8696,
        "meta_mean_anomaly": 300.2755,
        "meta_ephemeris_type": 0,
        "meta_classification_type": "U",
        "meta_norad_cat_id": 46277,
        "meta_element_set_no": 999,
        "meta_rev_at_epoch": 29279,
        "meta_bstar": 0.00039269,
        "meta_mean_motion_dot": 0.00015719,
        "meta_mean_motion_ddot": 0,
        "tle_line1": "1 46277U 20061F   25343.83586609  .00015719  00000+0  39269-3 0  9991",
        "tle_line2": "2 46277  97.2210  42.9705 0002059  59.8696 300.2755 15.40231359292799"
      },
      "geometry": {
        "type": "Point",
        "coordinates": [
          1.7503649450653214,
          79.19230575408993
        ]
      }
    },
    {
      "type": "Feature",
      "properties": {
        "norad_id": 46984,
        "name": "SENTINEL-6A",
        "group": "resource",
        "lat": 65.524704384233,
        "lon": -90.14217198327181,
        "alt_km": 1336.4052503066314,
        "timestamp": "2025-12-10T05:46:13.455122+00:00",
        "meta_object_name": "SENTINEL-6A",
        "meta_object_id": "2020-086A",
        "meta_epoch": "2025-12-09T19:54:23.122656",
        "meta_mean_motion": 12.80930509,
        "meta_eccentricity": 0.0007732,
        "meta_inclination": 66.0391,
        "meta_ra_of_asc_node": 168.3531,
        "meta_arg_of_pericenter": 269.1607,
        "meta_mean_anomaly": 90.8522,
        "meta_ephemeris_type": 0,
        "meta_classification_type": "U",
        "meta_norad_cat_id": 46984,
        "meta_element_set_no": 999,
        "meta_rev_at_epoch": 23607,
        "meta_bstar": 6.5392e-05,
        "meta_mean_motion_dot": -4.6e-07,
        "meta_mean_motion_ddot": 0,
        "tle_line1": "1 46984U 20086A   25343.82943429 -.00000046  00000+0  65392-4 0  9994",
        "tle_line2": "2 46984  66.0391 168.3531 0007732 269.1607  90.8522 12.80930509236076"
      },
      "geometry": {
        "type": "Point",
        "coordinates": [
          -90.14217198327181,
          65.524704384233
        ]
      }
    },
    {
      "type": "Feature",
      "properties": {
        "norad_id": 48079,
        "name": "GAOFEN-12 02",
        "group": "resource",
        "lat": -1.1936873672005732,
        "lon": -21.573432671217503,
        "alt_km": 631.0697133419962,
        "timestamp": "2025-12-10T05:46:13.455133+00:00",
        "meta_object_name": "GAOFEN-12 02",
        "meta_object_id": "2021-026A",
        "meta_epoch": "2025-12-09T20:02:40.537824",
        "meta_mean_motion": 14.80670146,
        "meta_eccentricity": 0.000347,
        "meta_inclination": 97.985,
        "meta_ra_of_asc_node": 337.8557,
        "meta_arg_of_pericenter": 106.6931,
        "meta_mean_anomaly": 253.4662,
        "meta_ephemeris_type": 0,
        "meta_classification_type": "U",
        "meta_norad_cat_id": 48079,
        "meta_element_set_no": 999,
        "meta_rev_at_epoch": 25374,
        "meta_bstar": 0.00013287,
        "meta_mean_motion_dot": 9.68e-06,
        "meta_mean_motion_ddot": 0,
        "tle_line1": "1 48079U 21026A   25343.83519141  .00000968  00000+0  13287-3 0  9994",
        "tle_line2": "2 48079  97.9850 337.8557 0003470 106.6931 253.4662 14.80670146253742"
      },
      "geometry": {
        "type": "Point",
        "coordinates": [
          -21.573432671217503,
          -1.1936873672005732
        ]
      }
    },
    {
      "type": "Feature",
      "properties": {
        "norad_id": 48268,
        "name": "PLEIADES NEO 3",
        "group": "resource",
        "lat": 56.08150135383459,
        "lon": 44.80804688246372,
        "alt_km": 617.9362541623277,
        "timestamp": "2025-12-10T05:46:13.455146+00:00",
        "meta_object_name": "PLEIADES NEO 3",
        "meta_object_id": "2021-034A",
        "meta_epoch": "2025-12-08T17:51:26.688096",
        "meta_mean_motion": 14.81674889,
        "meta_eccentricity": 0.00013213,
        "meta_inclination": 97.8951,
        "meta_ra_of_asc_node": 55.2426,
        "meta_arg_of_pericenter": 96.866,
        "meta_mean_anomaly": 263.2703,
        "meta_ephemeris_type": 0,
        "meta_classification_type": "U",
        "meta_norad_cat_id": 48268,
        "meta_element_set_no": 999,
        "meta_rev_at_epoch": 24945,
        "meta_bstar": 2.6372942e-05,
        "meta_mean_motion_dot": 1.55e-06,
        "meta_mean_motion_ddot": 0,
        "tle_line1": "1 48268U 21034A   25342.74405889  .00000155  00000+0  26373-4 0  9994",
        "tle_line2": "2 48268  97.8951  55.2426 0001321  96.8660 263.2703 14.81674889249458"
      },
      "geometry": {
        "type": "Point",
        "coordinates": [
          44.80804688246372,
          56.08150135383459
        ]
      }
    },
    {
      "type": "Feature",
      "properties": {
        "norad_id": 49070,
        "name": "PLEIADES NEO 4",
        "group": "resource",
        "lat": -56.308736553347444,
        "lon": -135.29976890227664,
        "alt_km": 631.9302434607844,
        "timestamp": "2025-12-10T05:46:13.455156+00:00",
        "meta_object_name": "PLEIADES NEO 4",
        "meta_object_id": "2021-073E",
        "meta_epoch": "2025-12-09T14:07:00.443712",
        "meta_mean_motion": 14.81679595,
        "meta_eccentricity": 0.0001363,
        "meta_inclination": 97.8947,
        "meta_ra_of_asc_node": 56.0703,
        "meta_arg_of_pericenter": 89.0853,
        "meta_mean_anomaly": 271.0516,
        "meta_ephemeris_type": 0,
        "meta_classification_type": "U",
        "meta_norad_cat_id": 49070,
        "meta_element_set_no": 999,
        "meta_rev_at_epoch": 23329,
        "meta_bstar": 7.8728e-05,
        "meta_mean_motion_dot": 5.68e-06,
        "meta_mean_motion_ddot": 0,
        "tle_line1": "1 49070U 21073E   25343.58819958  .00000568  00000+0  78728-4 0  9997",
        "tle_line2": "2 49070  97.8947  56.0703 0001363  89.0853 271.0516 14.81679595233299"
      },
      "geometry": {
        "type": "Point",
        "coordinates": [
          -135.29976890227664,
          -56.308736553347444
        ]
      }
    },
    {
      "type": "Feature",
      "properties": {
        "norad_id": 49260,
        "name": "LANDSAT 9",
        "group": "resource",
        "lat": 64.28620474833194,
        "lon": -110.16685583321039,
        "alt_km": 695.455274556939,
        "timestamp": "2025-12-10T05:46:13.455166+00:00",
        "meta_object_name": "LANDSAT 9",
        "meta_object_id": "2021-088A",
        "meta_epoch": "2025-12-09T11:07:07.369536",
        "meta_mean_motion": 14.57125619,
        "meta_eccentricity": 0.00011158,
        "meta_inclination": 98.2098,
        "meta_ra_of_asc_node": 51.6218,
        "meta_arg_of_pericenter": 94.4742,
        "meta_mean_anomaly": 265.6584,
        "meta_ephemeris_type": 0,
        "meta_classification_type": "U",
        "meta_norad_cat_id": 49260,
        "meta_element_set_no": 999,
        "meta_rev_at_epoch": 22337,
        "meta_bstar": 0.00019721256,
        "meta_mean_motion_dot": 8.44e-06,
        "meta_mean_motion_ddot": 0,
        "tle_line1": "1 49260U 21088A   25343.46327974  .00000844  00000+0  19721-3 0  9997",
        "tle_line2": "2 49260  98.2098  51.6218 0001115  94.4742 265.6584 14.57125619223374"
      },
      "geometry": {
        "type": "Point",
        "coordinates": [
          -110.16685583321039,
          64.28620474833194
        ]
      }
    }
  ]
}